[{"OBJECT_NAME":"TRANSPORTER-12 OBJECT G","OBJECT_ID":"2025-009G","EPOCH":"2026-03-09T17:57:00.262080","MEAN_MOTION":15.24410621,"ECCENTRICITY":0.00052883,"INCLINATION":97.3986,"RA_OF_ASC_NODE":149.8908,"ARG_OF_PERICENTER":330.1708,"MEAN_ANOMALY":29.9228,"EPHEMERIS_TYPE":0,"CLASSIFICATION_TYPE":"U","NORAD_CAT_ID":62615,"ELEMENT_SET_NO":999,"REV_AT_EPOCH":6364,"BSTAR":0.00034372065,"MEAN_MOTION_DOT":8.362e-5,"MEAN_MOTION_DDOT":0},{"OBJECT_NAME":"FENGYUN 1C DEB","OBJECT_ID":"1999-025EJQ","EPOCH":"2026-03-08T21:27:56.444256","MEAN_MOTION":15.23229897,"ECCENTRICITY":0.00101559,"INCLINATION":98.6645,"RA_OF_ASC_NODE":227.592,"ARG_OF_PERICENTER":263.6857,"MEAN_ANOMALY":96.3219,"EPHEMERIS_TYPE":0,"CLASSIFICATION_TYPE":"U","NORAD_CAT_ID":37470,"ELEMENT_SET_NO":999,"REV_AT_EPOCH":66762,"BSTAR":0.011057202,"MEAN_MOTION_DOT":0.00271626,"MEAN_MOTION_DDOT":0}]
